NORAD_CAT_ID,OBJECT_NAME,OBJECT_TYPE,EPOCH,MEAN_MOTION,ECCENTRICITY,INCLINATION,RA_OF_ASC_NODE,ARG_OF_PERICENTER,MEAN_ANOMALY,BSTAR,MEAN_MOTION_DOT,MEAN_MOTION_DDOT,TLE_LINE0,TLE_LINE1,TLE_LINE2,SEMIMAJOR_AXIS,PERIOD,APOGEE,PERIGEE,DECAYED
54192.0,STARLINK-5268,PAYLOAD,2022-12-05 06:00:00,15.73258688,0.0004096,53.2152,314.803,358.1386,173.4528,-0.00036408,-0.00051564,0.0,0 STARLINK-5268,1 54192U 22141AM  22339.25001157 -.00051564  00000-0 -36408-3 0  9998,2 54192  53.2152 314.8030 0004096 358.1386 173.4528 15.73258688  6271,6727.728,91.53,352.349,346.837,0.0
54192.0,STARLINK-5268,PAYLOAD,2022-12-05 14:00:01,15.73257327,0.0004015,53.2152,313.1524,357.2361,263.3861,-0.00040248,-0.00056897,0.0,0 STARLINK-5268,1 54192U 22141AM  22339.58335648 -.00056897  00000-0 -40248-3 0  9990,2 54192  53.2152 313.1524 0004015 357.2361 263.3861 15.73257327  1302,6727.732,91.53,352.298,346.896,0.0
54192.0,STARLINK-5268,PAYLOAD,2022-12-05 16:00:00,15.73254362,0.0003939,53.2154,312.7396,357.8387,14.9624,-0.00043378,-0.00061233,0.0,0 STARLINK-5268,1 54192U 22141AM  22339.66667824 -.00061233  00000-0 -43378-3 0  9990,2 54192  53.2154 312.7396 0003939 357.8387  14.9624 15.73254362  6346,6727.74,91.53,352.255,346.955,0.0
54192.0,STARLINK-5268,PAYLOAD,2022-12-06 07:11:34,15.73226443,0.0004234,53.2159,309.6077,1.6572,358.4461,2.5775e-05,2.999e-05,0.0,0 STARLINK-5268,1 54192U 22141AM  22340.29970852  .00002999  00000-0  25775-4 0  9993,2 54192  53.2159 309.6077 0004234   1.6572 358.4461 15.73226443  6446,6727.82,91.532,352.533,346.836,0.0
54192.0,STARLINK-5268,PAYLOAD,2022-12-06 13:17:30,15.73205462,0.0003888,53.2171,308.3488,359.3439,0.7575,-2.8425e-05,-4.614e-05,0.0,0 STARLINK-5268,1 54192U 22141AM  22340.55382625 -.00004614  00000-0 -28425-4 0  9990,2 54192  53.2171 308.3488 0003888 359.3439   0.7575 15.73205462  6251,6727.88,91.533,352.36,347.129,0.0
54192.0,STARLINK-5268,PAYLOAD,2022-12-06 14:48:59,15.73203246,0.0004007,53.2179,308.0348,356.7422,3.3571,-3.2012e-05,-5.117e-05,0.0,0 STARLINK-5268,1 54192U 22141AM  22340.61735559 -.00005117  00000-0 -32012-4 0  9991,2 54192  53.2179 308.0348 0004007 356.7422   3.3571 15.73203246  6497,6727.886,91.533,352.44699999999995,347.055,0.0
54192.0,STARLINK-5268,PAYLOAD,2022-12-06 22:26:24,15.73193086,0.0004576,53.2175,306.4623,2.1243,357.9796,-3.196e-05,-5.11e-05,0.0,0 STARLINK-5268,1 54192U 22141AM  22340.93500213 -.00005110  00000-0 -31960-4 0  9997,2 54192  53.2175 306.4623 0004576   2.1243 357.9796 15.73193086  6548,6727.915,91.534,352.8590000000001,346.701,0.0
54192.0,STARLINK-5268,PAYLOAD,2022-12-07 09:06:56,15.72978976,0.0005309,53.2169,304.2639,9.3006,350.8111,-0.00040969,-0.00057246,0.0,0 STARLINK-5268,1 54192U 22141AM  22341.37981620 -.00057246  00000-0 -40969-3 0  9996,2 54192  53.2169 304.2639 0005309   9.3006 350.8111 15.72978976  6614,6728.525,91.546,353.963,346.8180000000001,0.0
54192.0,STARLINK-5268,PAYLOAD,2022-12-08 00:21:58,15.72596857,0.0005427,53.2164,301.1213,22.9871,337.1391,-0.0011890999999999,-0.00160366,0.0,0 STARLINK-5268,1 54192U 22141AM  22342.01526575 -.00160366  00000-0 -11891-2 0  9991,2 54192  53.2164 301.1213 0005427  22.9871 337.1391 15.72596857  6718,6729.615,91.568,355.13199999999995,347.82800000000015,0.0
54192.0,STARLINK-5268,PAYLOAD,2022-12-08 06:28:08,15.72410531,0.0006023,53.2161,299.8640000000001,41.8819,318.266,-0.0013879,-0.00185108,0.0,0 STARLINK-5268,1 54192U 22141AM  22342.26954507 -.00185108  00000-0 -13879-2 0  9997,2 54192  53.2161 299.8640 0006023  41.8819 318.2660 15.72410531  6529,6730.147,91.579,356.065,347.958,0.0
54192.0,STARLINK-5268,PAYLOAD,2022-12-09 11:25:32,15.7323448,0.0002717,53.216,293.8842,7.795,352.3112,-9.5329e-05,-0.00014001,0.0,0 STARLINK-5268,1 54192U 22141AM  22343.47607157 -.00014001  00000-0 -95329-4 0  9992,2 54192  53.2160 293.8842 0002717   7.7950 352.3112 15.73234480  6944,6727.797,91.531,351.49,347.834,0.0
54192.0,STARLINK-5268,PAYLOAD,2022-12-10 05:43:12,15.73310267,0.0004345,53.216,290.1146,0.852,359.2507,0.00011411,0.00015502,0.0,0 STARLINK-5268,1 54192U 22141AM  22344.23834280  .00015502  00000-0  11411-3 0  9990,2 54192  53.2160 290.1146 0004345   0.8520 359.2507 15.73310267  7063,6727.581,91.527,352.369,346.523,0.0
54192.0,STARLINK-5268,PAYLOAD,2022-12-11 03:03:49,15.73234107,0.0004527,53.2156,285.7131,8.5741,351.5356,-0.00017685,-0.00025422,0.0,0 STARLINK-5268,1 54192U 22141AM  22345.12765706 -.00025422  00000-0 -17685-3 0  9998,2 54192  53.2156 285.7131 0004527   8.5741 351.5356 15.73234107  7205,6727.7980000000025,91.531,352.709,346.617,0.0
54192.0,STARLINK-5268,PAYLOAD,2022-12-11 10:41:13,15.73258866,0.000354,53.2149,284.137,10.6123,349.4971,-9.2459e-05,-0.00013617,0.0,0 STARLINK-5268,1 54192U 22141AM  22345.44529763 -.00013617  00000-0 -92459-4 0  9990,2 54192  53.2149 284.1370 0003540  10.6123 349.4971 15.73258866  7259,6727.727,91.53,351.974,347.211,0.0
54192.0,STARLINK-5268,PAYLOAD,2022-12-11 19:50:07,15.73245348,0.0004219,53.2151,282.2551,2.9493,357.1551,-1.3005e-05,-2.455e-05,0.0,0 STARLINK-5268,1 54192U 22141AM  22345.82648092 -.00002455  00000-0 -13005-4 0  9997,2 54192  53.2151 282.2551 0004219   2.9493 357.1551 15.73245348  7318,6727.766,91.531,352.469,346.792,0.0
54192.0,STARLINK-5268,PAYLOAD,2022-12-12 01:56:30,15.72491001,0.0004948999999999,53.2145,280.9955,38.1818,321.9551,-0.0014604,-0.00195099,0.0,0 STARLINK-5268,1 54192U 22141AM  22346.08090828 -.00195099  00000-0 -14604-2 0  9995,2 54192  53.2145 280.9955 0004949  38.1818 321.9551 15.72491001  7357,6729.917,91.574,355.11300000000006,348.452,0.0
54192.0,STARLINK-5268,PAYLOAD,2022-12-12 09:34:11,15.72338672,0.0004093,53.2142,279.4253,63.1471,296.9967,-0.0015622,-0.00206958,0.0,0 STARLINK-5268,1 54192U 22141AM  22346.39874680 -.00206958  00000-0 -15622-2 0  9993,2 54192  53.2142 279.4253 0004093  63.1471 296.9967 15.72338672  7403,6730.352,91.583,354.972,349.462,0.0
54192.0,STARLINK-5268,PAYLOAD,2022-12-12 15:40:30,15.72079628,0.0005759,53.2164,278.1731,74.8784,285.2872,-0.0020332,-0.00264611,0.0,0 STARLINK-5268,1 54192U 22141AM  22346.65313074 -.00264611  00000-0 -20332-2 0  9991,2 54192  53.2164 278.1731 0005759  74.8784 285.2872 15.72079628  7443,6731.090999999999,91.598,356.833,349.08,0.0
54192.0,STARLINK-5268,PAYLOAD,2022-12-13 02:21:56,15.70351447,0.0017352999999999,53.2147,275.9749,39.1883,321.0389,-0.0058648999999999,-0.00681997,0.0,0 STARLINK-5268,1 54192U 22141AM  22347.09857300 -.00681997  00000-0 -58649-2 0  9997,2 54192  53.2147 275.9749 0017353  39.1883 321.0389 15.70351447  7515,6736.029,91.699,369.583,346.205,0.0
54192.0,STARLINK-5268,PAYLOAD,2022-12-13 22:00:00,15.73205336,0.0003698,53.2177,271.9012,3.8739,319.976,-1.4785e-05,-2.7e-05,0.0,0 STARLINK-5268,1 54192U 22141AM  22347.91667824 -.00002700  00000-0 -14785-4 0  9992,2 54192  53.2177 271.9012 0003698   3.8739 319.9760 15.73205336  7643,6727.88,91.533,352.233,347.25699999999995,0.0
54192.0,STARLINK-5268,PAYLOAD,2022-12-14 06:00:00,15.73357348,0.0003715,53.2155,270.2607,11.1227,41.7031,-0.0024734,-0.00336706,0.0,0 STARLINK-5268,1 54192U 22141AM  22348.25001157 -.00336706  00000-0 -24734-2 0  9990,2 54192  53.2155 270.2607 0003715  11.1227  41.7031 15.73357348  7692,6727.446999999999,91.524,351.811,346.81199999999984,0.0
54192.0,STARLINK-5268,PAYLOAD,2022-12-14 14:00:01,15.73168953,0.0003295,53.2136,268.6142,8.726,133.0389,0.00038989,0.00054391,0.0,0 STARLINK-5268,1 54192U 22141AM  22348.58334491  .00054391  00000-0  38989-3 0  9999,2 54192  53.2136 268.6142 0003295   8.7260 133.0389 15.73168953  1303,6727.984,91.535,352.066,347.63199999999995,0.0
54192.0,STARLINK-5268,PAYLOAD,2022-12-14 17:58:28,15.73197145,0.000349,53.2144,267.7955,13.9745,346.1371,8.9853e-06,6.38e-06,0.0,0 STARLINK-5268,1 54192U 22141AM  22348.74893898  .00000638  00000-0  89853-5 0  9991,2 54192  53.2144 267.7955 0003490  13.9745 346.1371 15.73197145  7777,6727.903,91.533,352.116,347.42,0.0
54192.0,STARLINK-5268,PAYLOAD,2022-12-14 19:29:57,15.73203495,0.0003578,53.2146,267.4809,13.5405,346.5711,3.5931e-05,4.424e-05,0.0,0 STARLINK-5268,1 54192U 22141AM  22348.81246615  .00004424  00000-0  35931-4 0  9992,2 54192  53.2146 267.4809 0003578  13.5405 346.5711 15.73203495  7554,6727.885,91.533,352.157,347.343,0.0
54192.0,STARLINK-5268,PAYLOAD,2022-12-15 03:07:20,15.73223062,0.0003501,53.2149,265.9092,15.4726,344.64,4.7149e-05,6.006e-05,0.0,0 STARLINK-5268,1 54192U 22141AM  22349.13009382  .00006006  00000-0  47149-4 0  9998,2 54192  53.2149 265.9092 0003501  15.4726 344.6400 15.73223062  7834,6727.829000000002,91.532,352.05,347.339,0.0
54192.0,STARLINK-5268,PAYLOAD,2022-12-15 06:10:18,15.73207214,0.0003775,53.2148,265.28,18.0157,342.0996,1.7466e-05,1.829e-05,0.0,0 STARLINK-5268,1 54192U 22141AM  22349.25715725  .00001829  00000-0  17466-4 0  9993,2 54192  53.2148 265.2800 0003775  18.0157 342.0996 15.73207214  7858,6727.875,91.533,352.279,347.2,0.0
54192.0,STARLINK-5268,PAYLOAD,2022-12-15 19:53:36,15.73225228,0.0003417,53.2162,262.4502,16.3054,343.8075,1.4078e-05,1.355e-05,0.0,0 STARLINK-5268,1 54192U 22141AM  22349.82889647  .00001355  00000-0  14078-4 0  9991,2 54192  53.2162 262.4502 0003417  16.3054 343.8075 15.73225228  7719,6727.823,91.532,351.987,347.389,0.0
54192.0,STARLINK-5268,PAYLOAD,2022-12-16 06:00:00,15.73351864,0.000346,53.2154,260.3627,6.0676,220.4805,-0.0035283,-0.0047236999999999,0.0,0 STARLINK-5268,1 54192U 22141AM  22350.25001157 -.00472370  00000-0 -35283-2 0  9992,2 54192  53.2154 260.3627 0003460   6.0676 220.4805 15.73351864  8009,6727.462,91.524,351.655,347.0,0.0
54192.0,STARLINK-5268,PAYLOAD,2022-12-16 14:00:01,15.73143186,0.0003179,53.2134,258.7163,10.9239,304.5199,0.00040767,0.00056852,0.0,0 STARLINK-5268,1 54192U 22141AM  22350.58334491  .00056852  00000-0  40767-3 0  9993,2 54192  53.2134 258.7163 0003179  10.9239 304.5199 15.73143186  8050,6728.057,91.536,352.061,347.783,0.0
